start=new Date('2022-06-01T00:00:00.000Z').valueOf();
sats=[{"MEAN_ANOMALY":"302.6754","REV_AT_EPOCH":"14067","MEAN_ELEMENT_THEORY":"SGP4","DECAY_DATE":null,"MEAN_MOTION":"15.06394348","OBJECT_NAME":"STARLINK-1052","OBJECT_TYPE":"PAYLOAD","OBJECT_ID":"2019-074AW","EPHEMERIS_TYPE":"0","GP_ID":"205026254","CLASSIFICATION_TYPE":"U","LAUNCH_DATE":"2019-11-11","TLE_LINE1":"1 44757U 19074AW  22151.04386679  .00000445  00000-0  48760-4 0  9994","MEAN_MOTION_DOT":"0.00000445","TIME_SYSTEM":"UTC","COUNTRY_CODE":"US","RCS_SIZE":"LARGE","PERIOD":"95.592","EPOCH":"2022-05-31T01:03:10.090656","NORAD_CAT_ID":"44757","SITE":"AFETR","BSTAR":"0.00004876000000","ECCENTRICITY":"0.00015500","PERIAPSIS":"546.157","FILE":"3474118","TLE_LINE2":"2 44757  53.0556 275.6051 0001550  57.4384 302.6754 15.06394348140679","ARG_OF_PERICENTER":"57.4384","APOAPSIS":"548.304","RA_OF_ASC_NODE":"275.6051","MEAN_MOTION_DDOT":"0.0000000000000","SEMIMAJOR_AXIS":"6925.366","ELEMENT_SET_NO":"999","CENTER_NAME":"EARTH","REF_FRAME":"TEME","INCLINATION":"53.0556"},{"TLE_LINE1":"1 44758U 19074AX  22151.51657299  .00000481  00000-0  51166-4 0  9990","LAUNCH_DATE":"2019-11-11","GP_ID":"204999158","CLASSIFICATION_TYPE":"U","MEAN_MOTION_DOT":"0.00000481","TIME_SYSTEM":"UTC","COUNTRY_CODE":"US","DECAY_DATE":null,"MEAN_ELEMENT_THEORY":"SGP4","MEAN_MOTION":"15.06390657","REV_AT_EPOCH":"14064","MEAN_ANOMALY":"290.4748","OBJECT_ID":"2019-074AX","EPHEMERIS_TYPE":"0","OBJECT_NAME":"STARLINK-1053","OBJECT_TYPE":"PAYLOAD","SEMIMAJOR_AXIS":"6925.377","MEAN_MOTION_DDOT":"0.0000000000000","TLE_LINE2":"2 44758  53.0548 293.4877 0001518  69.6404 290.4748 15.06390657140640","ARG_OF_PERICENTER":"69.6404","RA_OF_ASC_NODE":"293.4877","APOAPSIS":"548.293","REF_FRAME":"TEME","INCLINATION":"53.0548","ELEMENT_SET_NO":"999","CENTER_NAME":"EARTH","NORAD_CAT_ID":"44758","SITE":"AFETR","RCS_SIZE":"LARGE","PERIOD":"95.593","EPOCH":"2022-05-31T12:23:51.906336","PERIAPSIS":"546.191","FILE":"3473763","BSTAR":"0.00005116600000","ECCENTRICITY":"0.00015180"},{"LAUNCH_DATE":"2019-11-11","TLE_LINE1":"1 44759U 19074AY  22151.77183083  .00001535  00000-0  12191-3 0  9999","CLASSIFICATION_TYPE":"U","GP_ID":"205037144","TIME_SYSTEM":"UTC","COUNTRY_CODE":"US","MEAN_MOTION_DOT":"0.00001535","MEAN_MOTION":"15.06402220","DECAY_DATE":null,"MEAN_ELEMENT_THEORY":"SGP4","REV_AT_EPOCH":"14068","MEAN_ANOMALY":"267.6966","EPHEMERIS_TYPE":"0","OBJECT_ID":"2019-074AY","OBJECT_TYPE":"PAYLOAD","OBJECT_NAME":"STARLINK-1054","SEMIMAJOR_AXIS":"6925.342","MEAN_MOTION_DDOT":"0.0000000000000","RA_OF_ASC_NODE":"292.3302","APOAPSIS":"548.500","ARG_OF_PERICENTER":"92.4236","TLE_LINE2":"2 44759  53.0537 292.3302 0001867  92.4236 267.6966 15.06402220140686","INCLINATION":"53.0537","REF_FRAME":"TEME","CENTER_NAME":"EARTH","ELEMENT_SET_NO":"999","SITE":"AFETR","NORAD_CAT_ID":"44759","EPOCH":"2022-05-31T18:31:26.183712","RCS_SIZE":"LARGE","PERIOD":"95.592","FILE":"3474370","PERIAPSIS":"545.914","ECCENTRICITY":"0.00018670","BSTAR":"0.00012191000000"},{"TIME_SYSTEM":"UTC","COUNTRY_CODE":"US","MEAN_MOTION_DOT":"-0.00002493","CLASSIFICATION_TYPE":"U","GP_ID":"205026504","LAUNCH_DATE":"2019-11-11","TLE_LINE1":"1 44760U 19074AZ  22151.09363423 -.00002493  00000-0 -14853-3 0  9997","OBJECT_TYPE":"PAYLOAD","OBJECT_NAME":"STARLINK-1055","EPHEMERIS_TYPE":"0","OBJECT_ID":"2019-074AZ","REV_AT_EPOCH":"14041","MEAN_ANOMALY":"309.1099","MEAN_MOTION":"15.06391774","DECAY_DATE":null,"MEAN_ELEMENT_THEORY":"SGP4","CENTER_NAME":"EARTH","ELEMENT_SET_NO":"999","INCLINATION":"53.0563","REF_FRAME":"TEME","RA_OF_ASC_NODE":"295.3806","APOAPSIS":"548.546","TLE_LINE2":"2 44760  53.0563 295.3806 0001888  51.0058 309.1099 15.06391774140416","ARG_OF_PERICENTER":"51.0058","SEMIMAJOR_AXIS":"6925.374","MEAN_MOTION_DDOT":"0.0000000000000","ECCENTRICITY":"0.00018880","BSTAR":"-0.00014853000000","FILE":"3474118","PERIAPSIS":"545.931","RCS_SIZE":"LARGE","PERIOD":"95.593","EPOCH":"2022-05-31T02:14:49.997472","SITE":"AFETR","NORAD_CAT_ID":"44760"},{"CENTER_NAME":"EARTH","ELEMENT_SET_NO":"999","INCLINATION":"53.0564","REF_FRAME":"TEME","RA_OF_ASC_NODE":"292.3519","APOAPSIS":"548.689","TLE_LINE2":"2 44761  53.0564 292.3519 0001928  77.7134 282.4071 15.06354247140687","ARG_OF_PERICENTER":"77.7134","MEAN_MOTION_DDOT":"0.0000000000000","SEMIMAJOR_AXIS":"6925.489","ECCENTRICITY":"0.00019280","BSTAR":"0.00049270000000","FILE":"3474370","PERIAPSIS":"546.019","EPOCH":"2022-05-31T18:26:09.479328","RCS_SIZE":"LARGE","PERIOD":"95.595","SITE":"AFETR","NORAD_CAT_ID":"44761","COUNTRY_CODE":"US","TIME_SYSTEM":"UTC","MEAN_MOTION_DOT":"0.00007056","CLASSIFICATION_TYPE":"U","GP_ID":"205037150","TLE_LINE1":"1 44761U 19074BA  22151.76816527  .00007056  00000-0  49270-3 0  9999","LAUNCH_DATE":"2019-11-11","OBJECT_NAME":"STARLINK-1056","OBJECT_TYPE":"PAYLOAD","EPHEMERIS_TYPE":"0","OBJECT_ID":"2019-074BA","REV_AT_EPOCH":"14068","MEAN_ANOMALY":"282.4071","MEAN_MOTION":"15.06354247","DECAY_DATE":null,"MEAN_ELEMENT_THEORY":"SGP4"},{"SITE":"AFETR","NORAD_CAT_ID":"44762","RCS_SIZE":"LARGE","EPOCH":"2022-05-31T10:31:06.019968","PERIOD":"95.593","FILE":"3473757","PERIAPSIS":"546.124","ECCENTRICITY":"0.00016200","BSTAR":"0.00013477000000","MEAN_MOTION_DDOT":"0.0000000000000","SEMIMAJOR_AXIS":"6925.381","RA_OF_ASC_NODE":"273.8273","APOAPSIS":"548.368","TLE_LINE2":"2 44762  53.0569 273.8273 0001620  62.0729 298.0424 15.06389294140900","ARG_OF_PERICENTER":"62.0729","INCLINATION":"53.0569","REF_FRAME":"TEME","CENTER_NAME":"EARTH","ELEMENT_SET_NO":"999","MEAN_MOTION":"15.06389294","DECAY_DATE":null,"MEAN_ELEMENT_THEORY":"SGP4","MEAN_ANOMALY":"298.0424","REV_AT_EPOCH":"14090","EPHEMERIS_TYPE":"0","OBJECT_ID":"2019-074BB","OBJECT_TYPE":"PAYLOAD","OBJECT_NAME":"STARLINK-1057","LAUNCH_DATE":"2019-11-11","TLE_LINE1":"1 44762U 19074BB  22151.43826412  .00001726  00000-0  13477-3 0  9996","CLASSIFICATION_TYPE":"U","GP_ID":"204998671","COUNTRY_CODE":"US","TIME_SYSTEM":"UTC","MEAN_MOTION_DOT":"0.00001726"},{"MEAN_MOTION_DOT":"-0.00000186","COUNTRY_CODE":"US","TIME_SYSTEM":"UTC","LAUNCH_DATE":"2019-11-11","TLE_LINE1":"1 44763U 19074BC  22151.65757346 -.00000186  00000-0  64039-5 0  9992","GP_ID":"205036655","CLASSIFICATION_TYPE":"U","OBJECT_ID":"2019-074BC","EPHEMERIS_TYPE":"0","OBJECT_NAME":"STARLINK-1058","OBJECT_TYPE":"PAYLOAD","DECAY_DATE":null,"MEAN_ELEMENT_THEORY":"SGP4","MEAN_MOTION":"15.06401589","REV_AT_EPOCH":"14066","MEAN_ANOMALY":"297.7512","REF_FRAME":"TEME","INCLINATION":"53.0538","ELEMENT_SET_NO":"999","CENTER_NAME":"EARTH","MEAN_MOTION_DDOT":"0.0000000000000","SEMIMAJOR_AXIS":"6925.344","TLE_LINE2":"2 44763  53.0538 292.8568 0001569  62.3636 297.7512 15.06401589140666","ARG_OF_PERICENTER":"62.3636","RA_OF_ASC_NODE":"292.8568","APOAPSIS":"548.295","PERIAPSIS":"546.122","FILE":"3474352","BSTAR":"0.00000640390000","ECCENTRICITY":"0.00015690","NORAD_CAT_ID":"44763","SITE":"AFETR","RCS_SIZE":"LARGE","EPOCH":"2022-05-31T15:46:54.346944","PERIOD":"95.592"},{"SEMIMAJOR_AXIS":"6925.385","MEAN_MOTION_DDOT":"0.0000000000000","RA_OF_ASC_NODE":"274.1549","APOAPSIS":"548.401","ARG_OF_PERICENTER":"52.5535","TLE_LINE2":"2 44764  53.0556 274.1549 0001662  52.5535 307.5605 15.06388134140890","INCLINATION":"53.0556","REF_FRAME":"TEME","CENTER_NAME":"EARTH","ELEMENT_SET_NO":"999","SITE":"AFETR","NORAD_CAT_ID":"44764","RCS_SIZE":"LARGE","EPOCH":"2022-05-31T08:50:15.586944","PERIOD":"95.593","FILE":"3473757","PERIAPSIS":"546.099","ECCENTRICITY":"0.00016620","BSTAR":"-0.00000603750000","TLE_LINE1":"1 44764U 19074BD  22151.36823596 -.00000371  00000-0 -60375-5 0  9998","LAUNCH_DATE":"2019-11-11","CLASSIFICATION_TYPE":"U","GP_ID":"204998672","COUNTRY_CODE":"US","TIME_SYSTEM":"UTC","MEAN_MOTION_DOT":"-0.00000371","MEAN_MOTION":"15.06388134","DECAY_DATE":null,"MEAN_ELEMENT_THEORY":"SGP4","REV_AT_EPOCH":"14089","MEAN_ANOMALY":"307.5605","EPHEMERIS_TYPE":"0","OBJECT_ID":"2019-074BD","OBJECT_TYPE":"PAYLOAD","OBJECT_NAME":"STARLINK-1059"},{"OBJECT_TYPE":"PAYLOAD","OBJECT_NAME":"STARLINK-1060","OBJECT_ID":"2019-074BE","EPHEMERIS_TYPE":"0","MEAN_ANOMALY":"290.5408","REV_AT_EPOCH":"14094","DECAY_DATE":null,"MEAN_ELEMENT_THEORY":"SGP4","MEAN_MOTION":"15.06399271","MEAN_MOTION_DOT":"0.00001653","COUNTRY_CODE":"US","TIME_SYSTEM":"UTC","GP_ID":"205036682","CLASSIFICATION_TYPE":"U","LAUNCH_DATE":"2019-11-11","TLE_LINE1":"1 44765U 19074BE  22151.71838961  .00001653  00000-0  12982-3 0  9991","BSTAR":"0.00012982000000","ECCENTRICITY":"0.00016530","PERIAPSIS":"546.071","FILE":"3474354","PERIOD":"95.592","RCS_SIZE":"LARGE","EPOCH":"2022-05-31T17:14:28.862304","NORAD_CAT_ID":"44765","SITE":"AFETR","ELEMENT_SET_NO":"999","CENTER_NAME":"EARTH","REF_FRAME":"TEME","INCLINATION":"53.0554","ARG_OF_PERICENTER":"69.5758","TLE_LINE2":"2 44765  53.0554 272.5657 0001653  69.5758 290.5408 15.06399271140948","RA_OF_ASC_NODE":"272.5657","APOAPSIS":"548.361","SEMIMAJOR_AXIS":"6925.351","MEAN_MOTION_DDOT":"0.0000000000000"},{"ECCENTRICITY":"0.00015620","BSTAR":"-0.00001771100000","FILE":"3473757","PERIAPSIS":"546.101","RCS_SIZE":"LARGE","PERIOD":"95.592","EPOCH":"2022-05-31T10:49:40.096128","SITE":"AFETR","NORAD_CAT_ID":"44766","CENTER_NAME":"EARTH","ELEMENT_SET_NO":"999","INCLINATION":"53.0566","REF_FRAME":"TEME","RA_OF_ASC_NODE":"293.7774","APOAPSIS":"548.265","TLE_LINE2":"2 44766  53.0566 293.7774 0001562  79.1725 280.9440 15.06410018140635","ARG_OF_PERICENTER":"79.1725","MEAN_MOTION_DDOT":"0.0000000000000","SEMIMAJOR_AXIS":"6925.318","OBJECT_TYPE":"PAYLOAD","OBJECT_NAME":"STARLINK-1061","EPHEMERIS_TYPE":"0","OBJECT_ID":"2019-074BF","REV_AT_EPOCH":"14063","MEAN_ANOMALY":"280.9440","MEAN_MOTION":"15.06410018","DECAY_DATE":null,"MEAN_ELEMENT_THEORY":"SGP4","COUNTRY_CODE":"US","TIME_SYSTEM":"UTC","MEAN_MOTION_DOT":"-0.00000545","CLASSIFICATION_TYPE":"U","GP_ID":"204999058","LAUNCH_DATE":"2019-11-11","TLE_LINE1":"1 44766U 19074BF  22151.45115852 -.00000545  00000-0 -17711-4 0  9997"}];
